BEIDOU 3 (C01)          
1 36287U 10001A   22262.24412942 -.00000285  00000+0  00000+0 0  9994
2 36287   1.6709  46.9483 0000646  23.7186 155.8231  1.00271841 46456
BEIDOU 5 (C06)          
1 36828U 10036A   22262.20841872 -.00000156  00000+0  00000+0 0  9994
2 36828  54.1988 175.3732 0030296 187.5461 178.2245  1.00271465 44524
BEIDOU 6 (C04)          
1 37210U 10057A   22262.24672372 -.00000118  00000+0  00000+0 0  9992
2 37210   0.7299  37.6592 0007134 149.7059  59.6039  1.00270588 43576
BEIDOU 7 (C07)          
1 37256U 10068A   22261.86555315 -.00000161  00000+0  00000+0 0  9996
2 37256  50.0457 288.5277 0024099 204.1929 284.7945  1.00277606 43089
BEIDOU 8 (C08)          
1 37384U 11013A   22261.86774543 -.00000154  00000+0  00000+0 0  9997
2 37384  60.4287  53.3354 0024096 177.6237 187.3281  1.00282659 41964
BEIDOU 9 (C09)          
1 37763U 11038A   22261.80575022 -.00000102  00000+0  00000+0 0  9993
2 37763  54.4815 177.8782 0099060 227.9223 336.4203  1.00261634 40936
BEIDOU 10 (C10)         
1 37948U 11073A   22261.86385755 -.00000115  00000+0  00000+0 0  9999
2 37948  50.1629 288.1724 0086921 219.5739 257.1049  1.00272927 39695
BEIDOU 11 (C05)         
1 38091U 12008A   22261.72950537  .00000050  00000+0  00000+0 0  9996
2 38091   1.7678  69.5011 0011305 343.4451 266.0296  1.00274693 38765
BEIDOU 12 (C11)         
1 38250U 12018A   22261.79591256 -.00000114  00000+0  00000+0 0  9992
2 38250  56.6656 350.4781 0022845 249.8113 262.8731  1.86234300 70824
BEIDOU 13 (C12)         
1 38251U 12018B   22261.79431725 -.00000113  00000+0  00000+0 0  9996
2 38251  56.5816 349.7962 0013885 249.1508 306.6219  1.86234050 70829
BEIDOU 15 (C14)         
1 38775U 12050B   22261.59027564 -.00000004  00000+0  00000+0 0  9992
2 38775  55.4532 108.5505 0012077 333.1842 281.7067  1.86231352 68197
BEIDOU 16 (C02)         
1 38953U 12059A   22262.08274906 -.00000183  00000+0  00000+0 0  9996
2 38953   1.1516  81.2959 0023844 295.4753  95.1651  1.00272700 36346
BEIDOU 17 (C31)         
1 40549U 15019A   22262.11091260 -.00000154  00000+0  00000+0 0  9991
2 40549  51.7238 311.6694 0038749 197.7645 344.3543  1.00277046 27372
BEIDOU 18 (C57)         
1 40748U 15037A   22261.67438259 -.00000114  00000+0  00000+0 0  9991
2 40748  55.8313 348.6106 0001476  48.2237 336.4618  1.86233361 48659
BEIDOU 19 (C58)         
1 40749U 15037B   22261.69928351 -.00000113  00000+0  00000+0 0  9990
2 40749  55.8345 348.5993 0003050 300.9578 234.6205  1.86232974 48643
BEIDOU 20 (C18)         
1 40938U 15053A   22261.86859250 -.00000090  00000+0  00000+0 0  9992
2 40938  51.3574 274.7959 0046426 199.6999 292.5091  1.00272030 25648
BEIDOU IGSO-6 (C13)     
1 41434U 16021A   22262.22514546 -.00000125  00000+0  00000+0 0  9996
2 41434  58.2388  51.8642 0045150 214.9824 267.3324  1.00264757 23771
BEIDOU-2 G7 (C03)       
1 41586U 16037A   22261.88556421 -.00000360  00000+0  00000+0 0  9991
2 41586   1.5779  67.8908 0007695 354.0709   5.1845  1.00273589 23078
BEIDOU-3 M1 (C19)       
1 43001U 17069A   22261.78165123 -.00000001  00000+0  00000+0 0  9997
2 43001  55.6066 108.5565 0007993 297.0052 242.5491  1.86231713 33130
BEIDOU-3 M2 (C20)       
1 43002U 17069B   22261.71450694 -.00000002  00000+0  00000+0 0  9992
2 43002  55.6059 108.5945 0006562 326.1190 211.3066  1.86231297 33121
BEIDOU-3 M3 (C27)       
1 43107U 18003A   22261.76469426 -.00000114  00000+0  00000+0 0  9999
2 43107  55.2828 349.4829 0004071  72.3089 305.0315  1.86232497 31897
BEIDOU-3 M4 (C28)       
1 43108U 18003B   22261.73433221 -.00000114  00000+0  00000+0 0  9991
2 43108  55.2763 349.4723 0003687 236.1165 164.2282  1.86230935 31899
BEIDOU-3 M5 (C21)       
1 43207U 18018A   22261.04480560 -.00000010  00000+0  00000+0 0  9994
2 43207  55.5649 108.6918 0004793   3.6065 356.4763  1.86231648 31263
BEIDOU-3 M6 (C22)       
1 43208U 18018B   22261.38656611 -.00000006  00000+0  00000+0 0  9999
2 43208  55.5645 108.6857 0006273 313.6385 230.8182  1.86231564 31263
BEIDOU-3 M7 (C29)       
1 43245U 18029A   22261.57542668 -.00000113  00000+0  00000+0 0  9998
2 43245  55.1934 347.2515 0000987 190.8633 330.0795  1.86232684 30424
BEIDOU-3 M8 (C30)       
1 43246U 18029B   22261.79077917 -.00000113  00000+0  10000-3 0  9998
2 43246  55.1901 347.2736 0002751   1.4667 350.4735  1.86232919 30419
BEIDOU IGSO-7 (C16)     
1 43539U 18057A   22261.74720278 -.00000160  00000+0  00000+0 0  9991
2 43539  55.0901 174.9061 0052490 228.2690 337.6317  1.00282196 15446
BEIDOU-3 M9 (C23)       
1 43581U 18062A   22261.59325373  .00000030  00000+0  00000+0 0  9999
2 43581  54.2543 228.8959 0005976 276.1015 154.6687  1.86231909 28161
BEIDOU-3 M10 (C24)      
1 43582U 18062B   22261.51015468  .00000031  00000+0  00000+0 0  9994
2 43582  54.2533 228.8880 0005263 339.9469 126.9981  1.86232353 28167
BEIDOU-3 M11 (C25)      
1 43602U 18067A   22261.40886524  .00000030  00000+0  00000+0 0  9998
2 43602  54.3371 227.5149 0006931   1.6218  78.6129  1.86231531 27650
BEIDOU-3 M12 (C26)      
1 43603U 18067B   22261.57743769  .00000029  00000+0  00000+0 0  9998
2 43603  54.3337 227.4758 0004232 343.9112 119.7015  1.86231485 27676
BEIDOU-3 M13 (C32)      
1 43622U 18072A   22261.95100704  .00000001  00000+0  00000+0 0  9993
2 43622  55.5324 108.2132 0004757 292.7970  90.3226  1.86231763 27197
BEIDOU-3 M14 (C33)      
1 43623U 18072B   22261.58134045 -.00000004  00000+0  00000+0 0  9992
2 43623  55.5349 108.2177 0003328 335.4135 250.1034  1.86231782 27188
BEIDOU-3 M15 (C34)      
1 43647U 18078A   22261.58778887 -.00000114  00000+0  10000-3 0  9999
2 43647  55.0883 347.4013 0005117   6.0332 119.4529  1.86232830 26692
BEIDOU-3 M16 (C35)      
1 43648U 18078B   22261.77178566 -.00000113  00000+0  00000+0 0  9993
2 43648  55.0845 347.4016 0003200  26.4054 130.0527  1.86232273 26713
BEIDOU-3 G1 (C59)       
1 43683U 18085A   22261.95029171 -.00000284  00000+0  00000+0 0  9996
2 43683   0.9944 151.7168 0004335  45.4489 282.8670  1.00273468 14346
BEIDOU-3 M17 (C36)      
1 43706U 18093A   22261.15208019  .00000033  00000+0  00000+0 0  9994
2 43706  54.3365 228.8031 0010779 277.1746  82.6821  1.86232105 26069
BEIDOU-3 M18 (C37)      
1 43707U 18093B   22261.73854285  .00000029  00000+0  00000+0 0  9996
2 43707  54.3373 228.7738 0009416 298.0681 186.2899  1.86232226 26068
BEIDOU-3 IGSO-1 (C38)   
1 44204U 19023A   22261.94898273 -.00000189  00000+0  00000+0 0  9999
2 44204  56.6986  51.9687 0023498 188.4581 218.6393  1.00281506 12652
BEIDOU-2 G8             
1 44231U 19027A   22262.24900684 -.00000252  00000+0  00000+0 0  9998
2 44231   1.0844  79.0075 0006138 117.0393  36.2231  1.00275562 12360
BEIDOU-3 IGSO-2 (C39)   
1 44337U 19035A   22261.98563883 -.00000164  00000+0  00000+0 0  9992
2 44337  55.1279 170.8925 0025737 192.4647 109.1266  1.00275911 11981
BEIDOU-3 M23 (C45)      
1 44542U 19061A   22261.62526767  .00000031  00000+0  00000+0 0  9992
2 44542  54.5628 228.9476 0008851 331.2268  28.7038  1.86231560 20323
BEIDOU-3 M24 (C46)      
1 44543U 19061B   22261.49493877  .00000032  00000+0  00000+0 0  9994
2 44543  54.5609 228.9218 0006476 312.0362 231.9441  1.86231823 20317
BEIDOU-3 IGSO-3         
1 44709U 19073A   22261.85966426 -.00000144  00000+0  10000-3 0  9996
2 44709  57.1118 295.4138 0027556 182.1861 309.6278  1.00280450 10739
BEIDOU-3 M21            
1 44793U 19078A   22261.42084846 -.00000114  00000+0  10000-3 0  9991
2 44793  54.9368 347.4175 0005051  15.9048 311.4050  1.86232297 19175
BEIDOU-3 M22            
1 44794U 19078B   22261.62582644 -.00000114  00000+0  00000+0 0  9998
2 44794  54.9111 347.4008 0002880   7.0844   9.4786  1.86232777 19184
BEIDOU-3 M19            
1 44864U 19090A   22261.58091598 -.00000004  00000+0  00000+0 0  9996
2 44864  55.4669 108.4317 0015291 271.1537 269.6963  1.86231933 18760
BEIDOU-3 M20            
1 44865U 19090B   22261.59156152 -.00000004  00000+0  00000+0 0  9996
2 44865  55.4694 108.4631 0013228 286.2758 351.5612  1.86231908 18739
BEIDOU-3 G2             
1 45344U 20017A   22262.08187705 -.00000146  00000+0  00000+0 0  9990
2 45344   2.0187 356.7842 0004019 157.5673 313.1558  1.00272690  9566
BEIDOU-3 G3             
1 45807U 20040A   22261.77527314 -.00000360  00000+0  00000+0 0  9997
2 45807   1.2376 306.2738 0007937 331.7672 109.2543  1.00268844  8363
